{
  "type": "FeatureCollection",
  "features": [
    {
      "type": "Feature",
      "properties": {
        "norad_id": 30080,
        "name": "FENGYUN 1C DEB",
        "group": "fengyun-1c-debris",
        "lat": 77.53537216869572,
        "lon": -160.22377183351458,
        "alt_km": 805.2603395106999,
        "timestamp": "2025-12-21T16:47:55.011948+00:00",
        "meta_object_name": "FENGYUN 1C DEB",
        "meta_object_id": "1999-025QH",
        "meta_epoch": "2025-12-21T04:43:13.255680",
        "meta_mean_motion": 14.10830351,
        "meta_eccentricity": 0.01336011,
        "meta_inclination": 98.6991,
        "meta_ra_of_asc_node": 335.4508,
        "meta_arg_of_pericenter": 36.7375,
        "meta_mean_anomaly": 26.2079,
        "meta_ephemeris_type": 0,
        "meta_classification_type": "U",
        "meta_norad_cat_id": 30080,
        "meta_element_set_no": 999,
        "meta_rev_at_epoch": 97357,
        "meta_bstar": 0.00021492741,
        "meta_mean_motion_dot": 3.76e-06,
        "meta_mean_motion_ddot": 0,
        "tle_line1": "1 30080U 99025QH  25355.19668120  .00000376  00000+0  21493-3 0  9996",
        "tle_line2": "2 30080  98.6991 335.4508 0133601  36.7375  26.2079 14.10830351973571"
      },
      "geometry": {
        "type": "Point",
        "coordinates": [
          -160.22377183351458,
          77.53537216869572
        ]
      }
    },
    {
      "type": "Feature",
      "properties": {
        "norad_id": 30081,
        "name": "FENGYUN 1C DEB",
        "group": "fengyun-1c-debris",
        "lat": -67.40071440936428,
        "lon": 149.5504425857066,
        "alt_km": 883.5212169589277,
        "timestamp": "2025-12-21T16:47:55.011959+00:00",
        "meta_object_name": "FENGYUN 1C DEB",
        "meta_object_id": "1999-025QJ",
        "meta_epoch": "2025-12-21T12:43:30.519840",
        "meta_mean_motion": 13.98290526,
        "meta_eccentricity": 0.0075743,
        "meta_inclination": 98.9236,
        "meta_ra_of_asc_node": 351.5618,
        "meta_arg_of_pericenter": 314.8436,
        "meta_mean_anomaly": 161.136,
        "meta_ephemeris_type": 0,
        "meta_classification_type": "U",
        "meta_norad_cat_id": 30081,
        "meta_element_set_no": 999,
        "meta_rev_at_epoch": 96477,
        "meta_bstar": 0.00035194,
        "meta_mean_motion_dot": 4.71e-06,
        "meta_mean_motion_ddot": 0,
        "tle_line1": "1 30081U 99025QJ  25355.53021435  .00000471  00000+0  35194-3 0  9996",
        "tle_line2": "2 30081  98.9236 351.5618 0075743 314.8436 161.1360 13.98290526964771"
      },
      "geometry": {
        "type": "Point",
        "coordinates": [
          149.5504425857066,
          -67.40071440936428
        ]
      }
    },
    {
      "type": "Feature",
      "properties": {
        "norad_id": 30082,
        "name": "FENGYUN 1C DEB",
        "group": "fengyun-1c-debris",
        "lat": -55.147171650005625,
        "lon": -62.24519484683552,
        "alt_km": 573.9036871928283,
        "timestamp": "2025-12-21T16:47:55.011969+00:00",
        "meta_object_name": "FENGYUN 1C DEB",
        "meta_object_id": "1999-025QK",
        "meta_epoch": "2025-12-21T10:42:38.031264",
        "meta_mean_motion": 15.15454908,
        "meta_eccentricity": 0.0070267,
        "meta_inclination": 98.8194,
        "meta_ra_of_asc_node": 284.578,
        "meta_arg_of_pericenter": 137.3312,
        "meta_mean_anomaly": 223.3404,
        "meta_ephemeris_type": 0,
        "meta_classification_type": "U",
        "meta_norad_cat_id": 30082,
        "meta_element_set_no": 999,
        "meta_rev_at_epoch": 1425,
        "meta_bstar": 0.00088033,
        "meta_mean_motion_dot": 0.00017664,
        "meta_mean_motion_ddot": 0,
        "tle_line1": "1 30082U 99025QK  25355.44627351  .00017664  00000+0  88033-3 0  9998",
        "tle_line2": "2 30082  98.8194 284.5780 0070267 137.3312 223.3404 15.15454908 14252"
      },
      "geometry": {
        "type": "Point",
        "coordinates": [
          -62.24519484683552,
          -55.147171650005625
        ]
      }
    },
    {
      "type": "Feature",
      "properties": {
        "norad_id": 30086,
        "name": "FENGYUN 1C DEB",
        "group": "fengyun-1c-debris",
        "lat": -37.69565151957524,
        "lon": -157.7580577606103,
        "alt_km": 900.7471670277519,
        "timestamp": "2025-12-21T16:47:55.011979+00:00",
        "meta_object_name": "FENGYUN 1C DEB",
        "meta_object_id": "1999-025QP",
        "meta_epoch": "2025-12-21T02:22:39.254880",
        "meta_mean_motion": 14.03841795,
        "meta_eccentricity": 0.00619382,
        "meta_inclination": 98.9097,
        "meta_ra_of_asc_node": 28.6157,
        "meta_arg_of_pericenter": 111.476,
        "meta_mean_anomaly": 310.9361,
        "meta_ephemeris_type": 0,
        "meta_classification_type": "U",
        "meta_norad_cat_id": 30086,
        "meta_element_set_no": 999,
        "meta_rev_at_epoch": 96813,
        "meta_bstar": 0.00034647797,
        "meta_mean_motion_dot": 5.13e-06,
        "meta_mean_motion_ddot": 0,
        "tle_line1": "1 30086U 99025QP  25355.09906545  .00000513  00000+0  34648-3 0  9996",
        "tle_line2": "2 30086  98.9097  28.6157 0061938 111.4760 310.9361 14.03841795968139"
      },
      "geometry": {
        "type": "Point",
        "coordinates": [
          -157.7580577606103,
          -37.69565151957524
        ]
      }
    },
    {
      "type": "Feature",
      "properties": {
        "norad_id": 30087,
        "name": "FENGYUN 1C DEB",
        "group": "fengyun-1c-debris",
        "lat": 66.96023883068194,
        "lon": 7.4219308167248075,
        "alt_km": 617.5581483616288,
        "timestamp": "2025-12-21T16:47:55.011989+00:00",
        "meta_object_name": "FENGYUN 1C DEB",
        "meta_object_id": "1999-025QQ",
        "meta_epoch": "2025-12-21T01:40:53.596128",
        "meta_mean_motion": 14.35717252,
        "meta_eccentricity": 0.02304474,
        "meta_inclination": 98.3792,
        "meta_ra_of_asc_node": 27.0866,
        "meta_arg_of_pericenter": 96.6099,
        "meta_mean_anomaly": 319.3481,
        "meta_ephemeris_type": 0,
        "meta_classification_type": "U",
        "meta_norad_cat_id": 30087,
        "meta_element_set_no": 999,
        "meta_rev_at_epoch": 98815,
        "meta_bstar": 0.00016760486,
        "meta_mean_motion_dot": 6.07e-06,
        "meta_mean_motion_ddot": 0,
        "tle_line1": "1 30087U 99025QQ  25355.07006477  .00000607  00000+0  16760-3 0  9999",
        "tle_line2": "2 30087  98.3792  27.0866 0230447  96.6099 319.3481 14.35717252988153"
      },
      "geometry": {
        "type": "Point",
        "coordinates": [
          7.4219308167248075,
          66.96023883068194
        ]
      }
    },
    {
      "type": "Feature",
      "properties": {
        "norad_id": 30088,
        "name": "FENGYUN 1C DEB",
        "group": "fengyun-1c-debris",
        "lat": -23.41801133075274,
        "lon": -16.640069609948565,
        "alt_km": 837.8033100967014,
        "timestamp": "2025-12-21T16:47:55.011999+00:00",
        "meta_object_name": "FENGYUN 1C DEB",
        "meta_object_id": "1999-025QR",
        "meta_epoch": "2025-12-21T12:28:15.911904",
        "meta_mean_motion": 14.35929626,
        "meta_eccentricity": 0.0200997,
        "meta_inclination": 98.355,
        "meta_ra_of_asc_node": 339.5357,
        "meta_arg_of_pericenter": 221.0837,
        "meta_mean_anomaly": 261.6933,
        "meta_ephemeris_type": 0,
        "meta_classification_type": "U",
        "meta_norad_cat_id": 30088,
        "meta_element_set_no": 999,
        "meta_rev_at_epoch": 98798,
        "meta_bstar": 0.00022141,
        "meta_mean_motion_dot": 7.58e-06,
        "meta_mean_motion_ddot": 0,
        "tle_line1": "1 30088U 99025QR  25355.51962861  .00000758  00000+0  22141-3 0  9994",
        "tle_line2": "2 30088  98.3550 339.5357 0200997 221.0837 261.6933 14.35929626987984"
      },
      "geometry": {
        "type": "Point",
        "coordinates": [
          -16.640069609948565,
          -23.41801133075274
        ]
      }
    },
    {
      "type": "Feature",
      "properties": {
        "norad_id": 30089,
        "name": "FENGYUN 1C DEB",
        "group": "fengyun-1c-debris",
        "lat": -5.93580772306377,
        "lon": 80.36795937124558,
        "alt_km": 741.5864419378613,
        "timestamp": "2025-12-21T16:47:55.012009+00:00",
        "meta_object_name": "FENGYUN 1C DEB",
        "meta_object_id": "1999-025QS",
        "meta_epoch": "2025-12-20T08:36:09.843264",
        "meta_mean_motion": 14.3031364,
        "meta_eccentricity": 0.00736305,
        "meta_inclination": 98.9037,
        "meta_ra_of_asc_node": 259.9295,
        "meta_arg_of_pericenter": 187.5968,
        "meta_mean_anomaly": 294.6342,
        "meta_ephemeris_type": 0,
        "meta_classification_type": "U",
        "meta_norad_cat_id": 30089,
        "meta_element_set_no": 999,
        "meta_rev_at_epoch": 98588,
        "meta_bstar": 0.00015998186,
        "meta_mean_motion_dot": 3.81e-06,
        "meta_mean_motion_ddot": 0,
        "tle_line1": "1 30089U 99025QS  25354.35844726  .00000381  00000+0  15998-3 0  9999",
        "tle_line2": "2 30089  98.9037 259.9295 0073630 187.5968 294.6342 14.30313640985885"
      },
      "geometry": {
        "type": "Point",
        "coordinates": [
          80.36795937124558,
          -5.93580772306377
        ]
      }
    }
  ]
}